start=new Date('2023-01-22T00:00:00.000Z').valueOf();
sats=[{"PERIOD":"95.438","ARG_OF_PERICENTER":"74.5653","ELEMENT_SET_NO":"999","NORAD_CAT_ID":"53015","REV_AT_EPOCH":"3086","SITE":"AFETR","EPOCH":"2023-01-21T10:46:53.877216","TLE_LINE1":"1 53015U 22076AF  23021.44923469 -.00000966  00000-0 -42572-4 0  9997","DECAY_DATE":null,"MEAN_MOTION_DOT":"-0.00000966","RCS_SIZE":"LARGE","INCLINATION":"53.2150","BSTAR":"-0.00004257200000","MEAN_MOTION":"15.08836548","OBJECT_NAME":"STARLINK-4262","MEAN_MOTION_DDOT":"0.0000000000000","PERIAPSIS":"537.788","TIME_SYSTEM":"UTC","RA_OF_ASC_NODE":"176.3361","CLASSIFICATION_TYPE":"U","OBJECT_ID":"2022-076AF","MEAN_ANOMALY":"285.5653","TLE_LINE2":"2 53015  53.2150 176.3361 0002845  74.5653 285.5653 15.08836548 30867","SEMIMAJOR_AXIS":"6917.891","FILE":"3757043","ECCENTRICITY":"0.00028450","GP_ID":"223574924","COUNTRY_CODE":"US","CENTER_NAME":"EARTH","EPHEMERIS_TYPE":"0","MEAN_ELEMENT_THEORY":"SGP4","LAUNCH_DATE":"2022-07-07","REF_FRAME":"TEME","APOAPSIS":"541.724","OBJECT_TYPE":"PAYLOAD"},{"RA_OF_ASC_NODE":"176.2824","TIME_SYSTEM":"UTC","PERIAPSIS":"538.253","MEAN_MOTION_DDOT":"0.0000000000000","OBJECT_NAME":"STARLINK-4283","BSTAR":"0.00014150000000","MEAN_MOTION":"15.08845166","INCLINATION":"53.2157","RCS_SIZE":"LARGE","MEAN_MOTION_DOT":"0.00001965","DECAY_DATE":null,"TLE_LINE1":"1 53016U 22076AG  23021.46027596  .00001965  00000-0  14150-3 0  9994","EPOCH":"2023-01-21T11:02:47.842944","SITE":"AFETR","REV_AT_EPOCH":"3086","ELEMENT_SET_NO":"999","NORAD_CAT_ID":"53016","ARG_OF_PERICENTER":"62.7756","PERIOD":"95.437","OBJECT_TYPE":"PAYLOAD","APOAPSIS":"541.207","LAUNCH_DATE":"2022-07-07","REF_FRAME":"TEME","MEAN_ELEMENT_THEORY":"SGP4","CENTER_NAME":"EARTH","EPHEMERIS_TYPE":"0","COUNTRY_CODE":"US","GP_ID":"223571163","ECCENTRICITY":"0.00021350","FILE":"3756879","SEMIMAJOR_AXIS":"6917.865","TLE_LINE2":"2 53016  53.2157 176.2824 0002135  62.7756 297.3453 15.08845166 30868","MEAN_ANOMALY":"297.3453","OBJECT_ID":"2022-076AG","CLASSIFICATION_TYPE":"U"},{"ARG_OF_PERICENTER":"96.7129","PERIOD":"95.438","NORAD_CAT_ID":"53017","ELEMENT_SET_NO":"999","EPOCH":"2023-01-21T10:41:35.487168","REV_AT_EPOCH":"3086","SITE":"AFETR","TLE_LINE1":"1 53017U 22076AH  23021.44554962  .00000241  00000-0  33243-4 0  9996","RCS_SIZE":"LARGE","INCLINATION":"53.2168","DECAY_DATE":null,"MEAN_MOTION_DOT":"0.00000241","BSTAR":"0.00003324300000","MEAN_MOTION":"15.08837886","PERIAPSIS":"538.588","RA_OF_ASC_NODE":"176.3442","TIME_SYSTEM":"UTC","OBJECT_NAME":"STARLINK-4281","MEAN_MOTION_DDOT":"0.0000000000000","CLASSIFICATION_TYPE":"U","SEMIMAJOR_AXIS":"6917.887","MEAN_ANOMALY":"263.4055","OBJECT_ID":"2022-076AH","TLE_LINE2":"2 53017  53.2168 176.3442 0001683  96.7129 263.4055 15.08837886 30868","FILE":"3756880","ECCENTRICITY":"0.00016830","COUNTRY_CODE":"US","GP_ID":"223571172","LAUNCH_DATE":"2022-07-07","REF_FRAME":"TEME","APOAPSIS":"540.916","CENTER_NAME":"EARTH","EPHEMERIS_TYPE":"0","MEAN_ELEMENT_THEORY":"SGP4","OBJECT_TYPE":"PAYLOAD"},{"ECCENTRICITY":"0.00021680","FILE":"3757303","OBJECT_ID":"2022-076AJ","MEAN_ANOMALY":"291.1812","TLE_LINE2":"2 53018  53.2146 175.1036 0002168  68.9412 291.1812 15.08811016 30907","SEMIMAJOR_AXIS":"6917.969","CLASSIFICATION_TYPE":"U","OBJECT_TYPE":"PAYLOAD","CENTER_NAME":"EARTH","EPHEMERIS_TYPE":"0","MEAN_ELEMENT_THEORY":"SGP4","REF_FRAME":"TEME","LAUNCH_DATE":"2022-07-07","APOAPSIS":"541.334","GP_ID":"223581052","COUNTRY_CODE":"US","REV_AT_EPOCH":"3090","SITE":"AFETR","EPOCH":"2023-01-21T17:20:25.012608","ELEMENT_SET_NO":"999","NORAD_CAT_ID":"53018","PERIOD":"95.439","ARG_OF_PERICENTER":"68.9412","OBJECT_NAME":"STARLINK-4279","MEAN_MOTION_DDOT":"0.0000000000000","PERIAPSIS":"538.334","RA_OF_ASC_NODE":"175.1036","TIME_SYSTEM":"UTC","BSTAR":"0.00081594000000","MEAN_MOTION":"15.08811016","DECAY_DATE":null,"MEAN_MOTION_DOT":"0.00012711","RCS_SIZE":"LARGE","INCLINATION":"53.2146","TLE_LINE1":"1 53018U 22076AJ  23021.72251172  .00012711  00000-0  81594-3 0  9991"},{"FILE":"3757303","ECCENTRICITY":"0.00018950","CLASSIFICATION_TYPE":"U","TLE_LINE2":"2 53019  53.2182 175.1883 0001895  87.1957 272.9252 15.08846175 30900","MEAN_ANOMALY":"272.9252","OBJECT_ID":"2022-076AK","SEMIMAJOR_AXIS":"6917.862","MEAN_ELEMENT_THEORY":"SGP4","CENTER_NAME":"EARTH","EPHEMERIS_TYPE":"0","APOAPSIS":"541.037","LAUNCH_DATE":"2022-07-07","REF_FRAME":"TEME","OBJECT_TYPE":"PAYLOAD","COUNTRY_CODE":"US","GP_ID":"223580873","SITE":"AFETR","REV_AT_EPOCH":"3090","EPOCH":"2023-01-21T16:52:31.697760","PERIOD":"95.437","ARG_OF_PERICENTER":"87.1957","NORAD_CAT_ID":"53019","ELEMENT_SET_NO":"999","BSTAR":"0.00014202000000","MEAN_MOTION":"15.08846175","MEAN_MOTION_DDOT":"0.0000000000000","OBJECT_NAME":"STARLINK-4282","RA_OF_ASC_NODE":"175.1883","TIME_SYSTEM":"UTC","PERIAPSIS":"538.416","TLE_LINE1":"1 53019U 22076AK  23021.70314465  .00001973  00000-0  14202-3 0  9995","MEAN_MOTION_DOT":"0.00001973","DECAY_DATE":null,"INCLINATION":"53.2182","RCS_SIZE":"LARGE"},{"ECCENTRICITY":"0.00012530","FILE":"3756803","MEAN_ANOMALY":"292.5873","OBJECT_ID":"2022-076AL","TLE_LINE2":"2 53020  53.2161 177.8015 0001253  67.5252 292.5873 15.08837231 30813","SEMIMAJOR_AXIS":"6917.889","CLASSIFICATION_TYPE":"U","OBJECT_TYPE":"PAYLOAD","EPHEMERIS_TYPE":"0","CENTER_NAME":"EARTH","MEAN_ELEMENT_THEORY":"SGP4","REF_FRAME":"TEME","LAUNCH_DATE":"2022-07-07","APOAPSIS":"540.621","GP_ID":"223569600","COUNTRY_CODE":"US","REV_AT_EPOCH":"3081","SITE":"AFETR","EPOCH":"2023-01-21T02:55:15.785472","ELEMENT_SET_NO":"999","NORAD_CAT_ID":"53020","PERIOD":"95.438","ARG_OF_PERICENTER":"67.5252","OBJECT_NAME":"STARLINK-4287","MEAN_MOTION_DDOT":"0.0000000000000","PERIAPSIS":"538.887","TIME_SYSTEM":"UTC","RA_OF_ASC_NODE":"177.8015","BSTAR":"0.00003711500000","MEAN_MOTION":"15.08837231","DECAY_DATE":null,"MEAN_MOTION_DOT":"0.00000303","RCS_SIZE":"LARGE","INCLINATION":"53.2161","TLE_LINE1":"1 53020U 22076AL  23021.12171048  .00000303  00000-0  37115-4 0  9996"},{"TLE_LINE1":"1 53021U 22076AM  23021.43083298  .00000151  00000-0  27569-4 0  9993","RCS_SIZE":"LARGE","INCLINATION":"53.2185","DECAY_DATE":null,"MEAN_MOTION_DOT":"0.00000151","BSTAR":"0.00002756900000","MEAN_MOTION":"15.08834836","PERIAPSIS":"538.719","RA_OF_ASC_NODE":"176.4139","TIME_SYSTEM":"UTC","OBJECT_NAME":"STARLINK-4203","MEAN_MOTION_DDOT":"0.0000000000000","ARG_OF_PERICENTER":"67.8370","PERIOD":"95.438","ELEMENT_SET_NO":"999","NORAD_CAT_ID":"53021","EPOCH":"2023-01-21T10:20:23.969472","REV_AT_EPOCH":"3086","SITE":"AFETR","GP_ID":"223574717","COUNTRY_CODE":"US","LAUNCH_DATE":"2022-07-07","REF_FRAME":"TEME","APOAPSIS":"540.803","CENTER_NAME":"EARTH","EPHEMERIS_TYPE":"0","MEAN_ELEMENT_THEORY":"SGP4","OBJECT_TYPE":"PAYLOAD","CLASSIFICATION_TYPE":"U","SEMIMAJOR_AXIS":"6917.896","MEAN_ANOMALY":"292.2782","OBJECT_ID":"2022-076AM","TLE_LINE2":"2 53021  53.2185 176.4139 0001506  67.8370 292.2782 15.08834836 30866","FILE":"3757043","ECCENTRICITY":"0.00015060"},{"ELEMENT_SET_NO":"999","NORAD_CAT_ID":"53022","ARG_OF_PERICENTER":"59.7318","PERIOD":"95.438","EPOCH":"2023-01-21T16:57:50.090400","SITE":"AFETR","REV_AT_EPOCH":"3090","INCLINATION":"53.2185","RCS_SIZE":"LARGE","MEAN_MOTION_DOT":"0.00002103","DECAY_DATE":null,"TLE_LINE1":"1 53022U 22076AN  23021.70682975  .00002103  00000-0  15023-3 0  9991","RA_OF_ASC_NODE":"175.1738","TIME_SYSTEM":"UTC","PERIAPSIS":"538.118","MEAN_MOTION_DDOT":"0.0000000000000","OBJECT_NAME":"STARLINK-4216","BSTAR":"0.00015023000000","MEAN_MOTION":"15.08837169","SEMIMAJOR_AXIS":"6917.889","TLE_LINE2":"2 53022  53.2185 175.1738 0002365  59.7318 300.3908 15.08837169 30902","MEAN_ANOMALY":"300.3908","OBJECT_ID":"2022-076AN","CLASSIFICATION_TYPE":"U","ECCENTRICITY":"0.00023650","FILE":"3757303","GP_ID":"223580868","COUNTRY_CODE":"US","OBJECT_TYPE":"PAYLOAD","APOAPSIS":"541.390","LAUNCH_DATE":"2022-07-07","REF_FRAME":"TEME","MEAN_ELEMENT_THEORY":"SGP4","CENTER_NAME":"EARTH","EPHEMERIS_TYPE":"0"},{"SITE":"AFETR","REV_AT_EPOCH":"3083","EPOCH":"2023-01-21T05:25:00.864480","NORAD_CAT_ID":"53023","ELEMENT_SET_NO":"999","PERIOD":"95.437","ARG_OF_PERICENTER":"92.6258","MEAN_MOTION_DDOT":"0.0000000000000","OBJECT_NAME":"STARLINK-4284","RA_OF_ASC_NODE":"177.3254","TIME_SYSTEM":"UTC","PERIAPSIS":"538.837","BSTAR":"0.00007021300000","MEAN_MOTION":"15.08842583","MEAN_MOTION_DOT":"0.00000830","DECAY_DATE":null,"INCLINATION":"53.2170","RCS_SIZE":"LARGE","TLE_LINE1":"1 53023U 22076AP  23021.22570445  .00000830  00000-0  70213-4 0  9995","ECCENTRICITY":"0.00013020","FILE":"3756785","TLE_LINE2":"2 53023  53.2170 177.3254 0001302  92.6258 267.4883 15.08842583 30836","MEAN_ANOMALY":"267.4883","OBJECT_ID":"2022-076AP","SEMIMAJOR_AXIS":"6917.872","CLASSIFICATION_TYPE":"U","OBJECT_TYPE":"PAYLOAD","MEAN_ELEMENT_THEORY":"SGP4","CENTER_NAME":"EARTH","EPHEMERIS_TYPE":"0","APOAPSIS":"540.638","REF_FRAME":"TEME","LAUNCH_DATE":"2022-07-07","GP_ID":"223568678","COUNTRY_CODE":"US"},{"GP_ID":"223558864","COUNTRY_CODE":"US","EPHEMERIS_TYPE":"0","CENTER_NAME":"EARTH","MEAN_ELEMENT_THEORY":"SGP4","LAUNCH_DATE":"2022-07-07","REF_FRAME":"TEME","APOAPSIS":"541.175","OBJECT_TYPE":"PAYLOAD","CLASSIFICATION_TYPE":"U","MEAN_ANOMALY":"304.9837","OBJECT_ID":"2022-076AQ","TLE_LINE2":"2 53024  53.2153 177.6102 0002087  55.1351 304.9837 15.08844608 30827","SEMIMAJOR_AXIS":"6917.866","FILE":"3756373","ECCENTRICITY":"0.00020870","TLE_LINE1":"1 53024U 22076AQ  23021.16218711  .00003826  00000-0  25831-3 0  9997","DECAY_DATE":null,"MEAN_MOTION_DOT":"0.00003826","RCS_SIZE":"LARGE","INCLINATION":"53.2153","BSTAR":"0.00025831000000","MEAN_MOTION":"15.08844608","OBJECT_NAME":"STARLINK-4289","MEAN_MOTION_DDOT":"0.0000000000000","PERIAPSIS":"538.288","TIME_SYSTEM":"UTC","RA_OF_ASC_NODE":"177.6102","PERIOD":"95.437","ARG_OF_PERICENTER":"55.1351","ELEMENT_SET_NO":"999","NORAD_CAT_ID":"53024","REV_AT_EPOCH":"3082","SITE":"AFETR","EPOCH":"2023-01-21T03:53:32.966304"}];
